CCSDS_OMM_VERS = 2.0
CREATION_DATE  = 
ORIGINATOR     = 

OBJECT_NAME    = ATLAS CENTAUR 2
OBJECT_ID      = 1963-047A
CENTER_NAME    = EARTH
REF_FRAME      = TEME
TIME_SYSTEM    = UTC
MEAN_ELEMENT_THEORY = SGP/SGP4

EPOCH          = 2026-03-30T04:30:09.555840
MEAN_MOTION    = 14.12151335
ECCENTRICITY   = .0547419
INCLINATION    = 30.3578
RA_OF_ASC_NODE = 81.0803
ARG_OF_PERICENTER = 260.9507
MEAN_ANOMALY   = 92.8781

EPHEMERIS_TYPE = 0
CLASSIFICATION_TYPE = U
NORAD_CAT_ID   = 694
ELEMENT_SET_NO = 999
REV_AT_EPOCH   = 13452
BSTAR          = .37027E-3
MEAN_MOTION_DOT = .3143E-4
MEAN_MOTION_DDOT = 0

CCSDS_OMM_VERS = 2.0
CREATION_DATE  = 
ORIGINATOR     = 

OBJECT_NAME    = THOR AGENA D R/B
OBJECT_ID      = 1964-002A
CENTER_NAME    = EARTH
REF_FRAME      = TEME
TIME_SYSTEM    = UTC
MEAN_ELEMENT_THEORY = SGP/SGP4

EPOCH          = 2026-03-30T12:34:25.951872
MEAN_MOTION    = 14.34031189
ECCENTRICITY   = .0032648
INCLINATION    = 99.1213
RA_OF_ASC_NODE = 103.9967
ARG_OF_PERICENTER = 196.1520
MEAN_ANOMALY   = 163.8624

EPHEMERIS_TYPE = 0
CLASSIFICATION_TYPE = U
NORAD_CAT_ID   = 733
ELEMENT_SET_NO = 999
REV_AT_EPOCH   = 24128
BSTAR          = .1066E-3
MEAN_MOTION_DOT = .251E-5
MEAN_MOTION_DDOT = 0

CCSDS_OMM_VERS = 2.0
CREATION_DATE  = 
ORIGINATOR     = 

OBJECT_NAME    = SL-3 R/B
OBJECT_ID      = 1964-053B
CENTER_NAME    = EARTH
REF_FRAME      = TEME
TIME_SYSTEM    = UTC
MEAN_ELEMENT_THEORY = SGP/SGP4

EPOCH          = 2026-03-30T11:53:55.227840
MEAN_MOTION    = 14.61382495
ECCENTRICITY   = .0080468
INCLINATION    = 65.0756
RA_OF_ASC_NODE = 270.2355
ARG_OF_PERICENTER = 285.6781
MEAN_ANOMALY   = 73.5451

EPHEMERIS_TYPE = 0
CLASSIFICATION_TYPE = U
NORAD_CAT_ID   = 877
ELEMENT_SET_NO = 999
REV_AT_EPOCH   = 26983
BSTAR          = .76144E-4
MEAN_MOTION_DOT = .269E-5
MEAN_MOTION_DDOT = 0

CCSDS_OMM_VERS = 2.0
CREATION_DATE  = 
ORIGINATOR     = 

OBJECT_NAME    = SL-8 R/B
OBJECT_ID      = 1967-045B
CENTER_NAME    = EARTH
REF_FRAME      = TEME
TIME_SYSTEM    = UTC
MEAN_ELEMENT_THEORY = SGP/SGP4

EPOCH          = 2026-03-30T08:03:09.173376
MEAN_MOTION    = 14.45638749
ECCENTRICITY   = .0064928
INCLINATION    = 74.0109
RA_OF_ASC_NODE = 309.5330
ARG_OF_PERICENTER = 311.2360
MEAN_ANOMALY   = 48.3212

EPHEMERIS_TYPE = 0
CLASSIFICATION_TYPE = U
NORAD_CAT_ID   = 2802
ELEMENT_SET_NO = 999
REV_AT_EPOCH   = 9200
BSTAR          = .10473E-3
MEAN_MOTION_DOT = .351E-5
MEAN_MOTION_DDOT = 0

CCSDS_OMM_VERS = 2.0
CREATION_DATE  = 
ORIGINATOR     = 

OBJECT_NAME    = SL-8 R/B
OBJECT_ID      = 1968-040B
CENTER_NAME    = EARTH
REF_FRAME      = TEME
TIME_SYSTEM    = UTC
MEAN_ELEMENT_THEORY = SGP/SGP4

EPOCH          = 2026-03-30T12:56:18.588192
MEAN_MOTION    = 15.03399862
ECCENTRICITY   = .0023268
INCLINATION    = 74.0291
RA_OF_ASC_NODE = 271.0848
ARG_OF_PERICENTER = 86.6138
MEAN_ANOMALY   = 273.7711

EPHEMERIS_TYPE = 0
CLASSIFICATION_TYPE = U
NORAD_CAT_ID   = 3230
ELEMENT_SET_NO = 999
REV_AT_EPOCH   = 9314
BSTAR          = .31409E-3
MEAN_MOTION_DOT = .4257E-4
MEAN_MOTION_DDOT = 0

CCSDS_OMM_VERS = 2.0
CREATION_DATE  = 
ORIGINATOR     = 

OBJECT_NAME    = OAO 2
OBJECT_ID      = 1968-110A
CENTER_NAME    = EARTH
REF_FRAME      = TEME
TIME_SYSTEM    = UTC
MEAN_ELEMENT_THEORY = SGP/SGP4

EPOCH          = 2026-03-30T13:09:28.995264
MEAN_MOTION    = 14.47319651
ECCENTRICITY   = .0005588
INCLINATION    = 34.9923
RA_OF_ASC_NODE = 148.7612
ARG_OF_PERICENTER = 358.9662
MEAN_ANOMALY   = 1.1016

EPHEMERIS_TYPE = 0
CLASSIFICATION_TYPE = U
NORAD_CAT_ID   = 3597
ELEMENT_SET_NO = 999
REV_AT_EPOCH   = 2212
BSTAR          = .86647E-4
MEAN_MOTION_DOT = .303E-5
MEAN_MOTION_DDOT = 0

CCSDS_OMM_VERS = 2.0
CREATION_DATE  = 
ORIGINATOR     = 

OBJECT_NAME    = ISIS 1
OBJECT_ID      = 1969-009A
CENTER_NAME    = EARTH
REF_FRAME      = TEME
TIME_SYSTEM    = UTC
MEAN_ELEMENT_THEORY = SGP/SGP4

EPOCH          = 2026-03-30T10:17:42.735840
MEAN_MOTION    = 11.30419508
ECCENTRICITY   = .1707829
INCLINATION    = 88.4503
RA_OF_ASC_NODE = 153.0450
ARG_OF_PERICENTER = 47.3264
MEAN_ANOMALY   = 325.9535

EPHEMERIS_TYPE = 0
CLASSIFICATION_TYPE = U
NORAD_CAT_ID   = 3669
ELEMENT_SET_NO = 999
REV_AT_EPOCH   = 35087
BSTAR          = .10551E-3
MEAN_MOTION_DOT = .167E-5
MEAN_MOTION_DDOT = 0

CCSDS_OMM_VERS = 2.0
CREATION_DATE  = 
ORIGINATOR     = 

OBJECT_NAME    = SERT 2
OBJECT_ID      = 1970-009A
CENTER_NAME    = EARTH
REF_FRAME      = TEME
TIME_SYSTEM    = UTC
MEAN_ELEMENT_THEORY = SGP/SGP4

EPOCH          = 2026-03-30T11:25:55.190208
MEAN_MOTION    = 13.58731765
ECCENTRICITY   = .0005661
INCLINATION    = 99.2787
RA_OF_ASC_NODE = 31.4354
ARG_OF_PERICENTER = 107.9451
MEAN_ANOMALY   = 13.3882

EPHEMERIS_TYPE = 0
CLASSIFICATION_TYPE = U
NORAD_CAT_ID   = 4327
ELEMENT_SET_NO = 999
REV_AT_EPOCH   = 78271
BSTAR          = .55825E-4
MEAN_MOTION_DOT = 0
MEAN_MOTION_DDOT = 0

CCSDS_OMM_VERS = 2.0
CREATION_DATE  = 
ORIGINATOR     = 

OBJECT_NAME    = SL-3 R/B
OBJECT_ID      = 1971-028B
CENTER_NAME    = EARTH
REF_FRAME      = TEME
TIME_SYSTEM    = UTC
MEAN_ELEMENT_THEORY = SGP/SGP4

EPOCH          = 2026-03-30T08:20:41.217792
MEAN_MOTION    = 15.62987430
ECCENTRICITY   = .0014685
INCLINATION    = 81.2376
RA_OF_ASC_NODE = 26.4813
ARG_OF_PERICENTER = 199.9313
MEAN_ANOMALY   = 160.1370

EPHEMERIS_TYPE = 0
CLASSIFICATION_TYPE = U
NORAD_CAT_ID   = 5118
ELEMENT_SET_NO = 999
REV_AT_EPOCH   = 99189
BSTAR          = .58341E-3
MEAN_MOTION_DOT = .53413E-3
MEAN_MOTION_DDOT = 0

CCSDS_OMM_VERS = 2.0
CREATION_DATE  = 
ORIGINATOR     = 

OBJECT_NAME    = ASTEX 1
OBJECT_ID      = 1971-089A
CENTER_NAME    = EARTH
REF_FRAME      = TEME
TIME_SYSTEM    = UTC
MEAN_ELEMENT_THEORY = SGP/SGP4

EPOCH          = 2026-03-30T05:43:08.794272
MEAN_MOTION    = 14.50790654
ECCENTRICITY   = .001624
INCLINATION    = 92.7090
RA_OF_ASC_NODE = 158.4010
ARG_OF_PERICENTER = 23.5911
MEAN_ANOMALY   = 336.6036

EPHEMERIS_TYPE = 0
CLASSIFICATION_TYPE = U
NORAD_CAT_ID   = 5560
ELEMENT_SET_NO = 999
REV_AT_EPOCH   = 86528
BSTAR          = .14473E-3
MEAN_MOTION_DOT = .569E-5
MEAN_MOTION_DDOT = 0

CCSDS_OMM_VERS = 2.0
CREATION_DATE  = 
ORIGINATOR     = 

OBJECT_NAME    = SL-8 R/B
OBJECT_ID      = 1971-119B
CENTER_NAME    = EARTH
REF_FRAME      = TEME
TIME_SYSTEM    = UTC
MEAN_ELEMENT_THEORY = SGP/SGP4

EPOCH          = 2026-03-30T12:39:30.013344
MEAN_MOTION    = 14.38255425
ECCENTRICITY   = .0546348
INCLINATION    = 73.8855
RA_OF_ASC_NODE = 136.7591
ARG_OF_PERICENTER = 98.9777
MEAN_ANOMALY   = 267.3601

EPHEMERIS_TYPE = 0
CLASSIFICATION_TYPE = U
NORAD_CAT_ID   = 5730
ELEMENT_SET_NO = 999
REV_AT_EPOCH   = 65848
BSTAR          = .48211E-3
MEAN_MOTION_DOT = .9217E-4
MEAN_MOTION_DDOT = 0

CCSDS_OMM_VERS = 2.0
CREATION_DATE  = 
ORIGINATOR     = 

OBJECT_NAME    = OAO 3 (COPERNICUS)
OBJECT_ID      = 1972-065A
CENTER_NAME    = EARTH
REF_FRAME      = TEME
TIME_SYSTEM    = UTC
MEAN_ELEMENT_THEORY = SGP/SGP4

EPOCH          = 2026-03-30T12:24:44.141184
MEAN_MOTION    = 14.60014746
ECCENTRICITY   = .0007017
INCLINATION    = 35.0048
RA_OF_ASC_NODE = 178.6497
ARG_OF_PERICENTER = 326.8634
MEAN_ANOMALY   = 50.4478

EPHEMERIS_TYPE = 0
CLASSIFICATION_TYPE = U
NORAD_CAT_ID   = 6153
ELEMENT_SET_NO = 999
REV_AT_EPOCH   = 84924
BSTAR          = .91562E-4
MEAN_MOTION_DOT = .425E-5
MEAN_MOTION_DDOT = 0

