ATLAS CENTAUR 2         
1 00694U 63047A   26089.18761060  .00003143  00000+0  37027-3 0  9995
2 00694  30.3578  81.0803 0547419 260.9507  92.8781 14.12151335134522
THOR AGENA D R/B        
1 00733U 64002A   26089.52391148  .00000251  00000+0  10660-3 0  9996
2 00733  99.1213 103.9967 0032648 196.1520 163.8624 14.34031189241283
SL-3 R/B                
1 00877U 64053B   26089.49577810  .00000269  00000+0  76144-4 0  9998
2 00877  65.0756 270.2355 0080468 285.6781  73.5451 14.61382495269836
SL-8 R/B                
1 02802U 67045B   26089.33552284  .00000351  00000+0  10473-3 0  9997
2 02802  74.0109 309.5330 0064928 311.2360  48.3212 14.45638749 92005
SL-8 R/B                
1 03230U 68040B   26089.53910403  .00004257  00000+0  31409-3 0  9993
2 03230  74.0291 271.0848 0023268  86.6138 273.7711 15.03399862 93147
OAO 2                   
1 03597U 68110A   26089.54825226  .00000303  00000+0  86647-4 0  9999
2 03597  34.9923 148.7612 0005588 358.9662   1.1016 14.47319651 22127
ISIS 1                  
1 03669U 69009A   26089.42896685  .00000167  00000+0  10551-3 0  9999
2 03669  88.4503 153.0450 1707829  47.3264 325.9535 11.30419508350879
SERT 2                  
1 04327U 70009A   26089.47633322  .00000000  00000+0  55825-4 0  9995
2 04327  99.2787  31.4354 0005661 107.9451  13.3882 13.58731765782711
SL-3 R/B                
1 05118U 71028B   26089.34769928  .00053413  00000+0  58341-3 0  9995
2 05118  81.2376  26.4813 0014685 199.9313 160.1370 15.62987430991896
ASTEX 1                 
1 05560U 71089A   26089.23829623  .00000569  00000+0  14473-3 0  9992
2 05560  92.7090 158.4010 0016240  23.5911 336.6036 14.50790654865285
SL-8 R/B                
1 05730U 71119B   26089.52743071  .00009217  00000+0  48211-3 0  9995
2 05730  73.8855 136.7591 0546348  98.9777 267.3601 14.38255425658487
OAO 3 (COPERNICUS)      
1 06153U 72065A   26089.51717756  .00000425  00000+0  91562-4 0  9996
2 06153  35.0048 178.6497 0007017 326.8634  50.4478 14.60014746849244
